STARLINK-32036          
1 60141U 24120G   26068.89109256  .00002904  00000+0  11016-3 0  9999
2 60141  53.1613 319.2299 0001105  91.6482 268.4645 15.30190389 96486
TEVEL2-4                
1 63213U 25052D   26068.69417974  .00020990  00000+0  70363-3 0  9999
2 63213  97.4009 325.1237 0004733  95.3468 264.8313 15.30925813 54879
